{"spkid": "50632705", "covariance": {"elements": [{"sigma": 5.29617493431844e-09, "name": "e", "title": "eccentricity", "value": ".6146531448080041", "units": null, "label": "e"}, {"label": "q", "title": "perihelion distance", "value": ".9675222845055985", "units": "au", "name": "q", "sigma": 1.30254857286235e-08}, {"units": "TDB", "value": "2459249.507571664985", "title": "time of perihelion passage", "sigma": 7.6526204638921e-06, "name": "tp", "label": "tp"}, {"label": "node", "sigma": 1.66358680592035e-05, "name": "om", "units": "deg", "title": "longitude of the ascending node", "value": "327.3259107355511"}, {"sigma": 1.98591302508437e-05, "name": "w", "units": "deg", "title": "argument of perihelion", "value": "177.8068756491142", "label": "peri"}, {"title": "inclination", "value": "3.474463641378292", "units": "deg", "sigma": 2.85233127781772e-06, "name": "i", "label": "i"}], "data": [["2.804946893490291E-17", "-6.884180417585098E-17", "3.031107335653236E-14", "-5.914844174749116E-14", "9.365587159447245E-14", "1.844036434518776E-15"], ["-6.884180417585098E-17", "1.696632784665744E-16", "-7.392855319062716E-14", "1.451559301290649E-13", "-2.313058035279453E-13", "-4.781207364453655E-15"], ["3.031107335653236E-14", "-7.392855319062716E-14", "5.856259996438021E-11", "-1.846569489509767E-11", "8.801471051718406E-11", "-6.134333415813549E-13"], ["-5.914844174749116E-14", "1.451559301290649E-13", "-1.846569489509767E-11", "2.767521060832277E-10", "-2.911017459074466E-10", "-3.106860855880406E-11"], ["9.365587159447245E-14", "-2.313058035279453E-13", "8.801471051718406E-11", "-2.911017459074466E-10", "3.943850543199745E-10", "3.106769633050511E-11"], ["1.844036434518776E-15", "-4.781207364453655E-15", "-6.134333415813549E-13", "-3.106860855880406E-11", "3.106769633050511E-11", "8.135793718417254E-12"]], "labels": ["e", "q", "tp", "node", "peri", "i"], "epoch": "2458620.5"}, "elements": [{"name": "e", "sigma": "4.7037E-9", "units": null, "value": ".6129700155761375", "title": "eccentricity", "label": "e"}, {"sigma": "2.5545E-9", "name": "a", "title": "semi-major axis", "value": "2.511653749933606", "units": "au", "label": "a"}, {"label": "q", "name": "q", "sigma": "1.1284E-8", "units": "au", "value": ".9720853117149395", "title": "perihelion distance"}, {"label": "i", "title": "inclination; angle with respect to x-y ecliptic plane", "value": "3.469372292307932", "units": "deg", "sigma": "2.8491E-6", "name": "i"}, {"label": "node", "units": "deg", "title": "longitude of the ascending node", "value": "327.2487795660901", "name": "om", "sigma": "1.6648E-5"}, {"value": "177.8336315196594", "title": "argument of perihelion", "units": "deg", "sigma": "1.9877E-5", "name": "w", "label": "peri"}, {"label": "M", "name": "ma", "sigma": "2.5657E-6", "title": "mean anomaly", "value": "123.5696382727888", "units": "deg"}, {"sigma": "9.615E-6", "name": "tp", "units": "TDB", "value": "2460701.446214531290", "title": "time of perihelion passage", "label": "tp"}, {"label": "period", "units": "d", "value": "1453.911861197851", "title": "sidereal orbital period", "sigma": "2.2181E-6", "name": "per"}, {"units": "deg/d", "value": ".2476078568500037", "title": "mean motion", "name": "n", "sigma": "3.7775E-10", "label": "n"}, {"units": "au", "title": "aphelion distance", "value": "4.051222188152273", "sigma": "4.1203E-9", "name": "ad", "label": "Q"}], "epoch": "2461200.5"}